{
  "type": "FeatureCollection",
  "features": [
    {
      "type": "Feature",
      "properties": {
        "norad_id": 41866,
        "name": "GOES 16",
        "group": "weather",
        "lat": -0.0551981053104877,
        "lon": -23.212396385630907,
        "alt_km": 35771.399674933076,
        "timestamp": "2025-12-17T23:38:06.507309+00:00",
        "meta_object_name": "GOES 16",
        "meta_object_id": "2016-071A",
        "meta_epoch": "2025-12-17T12:03:27.300384",
        "meta_mean_motion": 1.00295219,
        "meta_eccentricity": 0.00041522,
        "meta_inclination": 0.0692,
        "meta_ra_of_asc_node": 105.9501,
        "meta_arg_of_pericenter": 168.4488,
        "meta_mean_anomaly": 248.1785,
        "meta_ephemeris_type": 0,
        "meta_classification_type": "U",
        "meta_norad_cat_id": 41866,
        "meta_element_set_no": 999,
        "meta_rev_at_epoch": 3328,
        "meta_bstar": 0,
        "meta_mean_motion_dot": -7e-07,
        "meta_mean_motion_ddot": 0,
        "tle_line1": "1 41866U 16071A   25351.50239931 -.00000070  00000+0  00000+0 0  9994",
        "tle_line2": "2 41866   0.0692 105.9501 0004152 168.4488 248.1785  1.00295219 33286"
      },
      "geometry": {
        "type": "Point",
        "coordinates": [
          -23.212396385630907,
          -0.0551981053104877
        ]
      }
    },
    {
      "type": "Feature",
      "properties": {
        "norad_id": 41882,
        "name": "FENGYUN 4A",
        "group": "weather",
        "lat": 1.5492519953499824,
        "lon": -154.85813818714809,
        "alt_km": 35769.23969400178,
        "timestamp": "2025-12-17T23:38:06.507321+00:00",
        "meta_object_name": "FENGYUN 4A",
        "meta_object_id": "2016-077A",
        "meta_epoch": "2025-12-17T15:37:39.321120",
        "meta_mean_motion": 1.00267587,
        "meta_eccentricity": 0.00045314,
        "meta_inclination": 1.8615,
        "meta_ra_of_asc_node": 82.3445,
        "meta_arg_of_pericenter": 143.4477,
        "meta_mean_anomaly": 218.9258,
        "meta_ephemeris_type": 0,
        "meta_classification_type": "U",
        "meta_norad_cat_id": 41882,
        "meta_element_set_no": 999,
        "meta_rev_at_epoch": 3311,
        "meta_bstar": 0,
        "meta_mean_motion_dot": -3.33e-06,
        "meta_mean_motion_ddot": 0,
        "tle_line1": "1 41882U 16077A   25351.65114955 -.00000333  00000+0  00000+0 0  9994",
        "tle_line2": "2 41882   1.8615  82.3445 0004531 143.4477 218.9258  1.00267587 33114"
      },
      "geometry": {
        "type": "Point",
        "coordinates": [
          -154.85813818714809,
          1.5492519953499824
        ]
      }
    },
    {
      "type": "Feature",
      "properties": {
        "norad_id": 41884,
        "name": "CYGFM05",
        "group": "weather",
        "lat": 30.92051816653926,
        "lon": 133.85141343957565,
        "alt_km": 420.24580638005773,
        "timestamp": "2025-12-17T23:38:06.507332+00:00",
        "meta_object_name": "CYGFM05",
        "meta_object_id": "2016-078A",
        "meta_epoch": "2025-12-17T09:12:12.228768",
        "meta_mean_motion": 15.47807329,
        "meta_eccentricity": 0.00106476,
        "meta_inclination": 34.9607,
        "meta_ra_of_asc_node": 16.7934,
        "meta_arg_of_pericenter": 224.7859,
        "meta_mean_anomaly": 135.2004,
        "meta_ephemeris_type": 0,
        "meta_classification_type": "U",
        "meta_norad_cat_id": 41884,
        "meta_element_set_no": 999,
        "meta_rev_at_epoch": 50048,
        "meta_bstar": 0.00031164577,
        "meta_mean_motion_dot": 0.00016701,
        "meta_mean_motion_ddot": 0,
        "tle_line1": "1 41884U 16078A   25351.38347487  .00016701  00000+0  31165-3 0  9990",
        "tle_line2": "2 41884  34.9607  16.7934 0010647 224.7859 135.2004 15.47807329500489"
      },
      "geometry": {
        "type": "Point",
        "coordinates": [
          133.85141343957565,
          30.92051816653926
        ]
      }
    },
    {
      "type": "Feature",
      "properties": {
        "norad_id": 41885,
        "name": "CYGFM04",
        "group": "weather",
        "lat": 24.97622816293269,
        "lon": 29.3483183434146,
        "alt_km": 416.04446354943775,
        "timestamp": "2025-12-17T23:38:06.507343+00:00",
        "meta_object_name": "CYGFM04",
        "meta_object_id": "2016-078B",
        "meta_epoch": "2025-12-17T09:31:26.788512",
        "meta_mean_motion": 15.50553035,
        "meta_eccentricity": 0.00097836,
        "meta_inclination": 34.9357,
        "meta_ra_of_asc_node": 351.3477,
        "meta_arg_of_pericenter": 250.2509,
        "meta_mean_anomaly": 109.7158,
        "meta_ephemeris_type": 0,
        "meta_classification_type": "U",
        "meta_norad_cat_id": 41885,
        "meta_element_set_no": 999,
        "meta_rev_at_epoch": 50066,
        "meta_bstar": 0.0003301433,
        "meta_mean_motion_dot": 0.00019503,
        "meta_mean_motion_ddot": 0,
        "tle_line1": "1 41885U 16078B   25351.39683783  .00019503  00000+0  33014-3 0  9992",
        "tle_line2": "2 41885  34.9357 351.3477 0009783 250.2509 109.7158 15.50553035500669"
      },
      "geometry": {
        "type": "Point",
        "coordinates": [
          29.3483183434146,
          24.97622816293269
        ]
      }
    },
    {
      "type": "Feature",
      "properties": {
        "norad_id": 41886,
        "name": "CYGFM02",
        "group": "weather",
        "lat": 34.86369662366036,
        "lon": 71.87156594511194,
        "alt_km": 412.15619431612413,
        "timestamp": "2025-12-17T23:38:06.507354+00:00",
        "meta_object_name": "CYGFM02",
        "meta_object_id": "2016-078C",
        "meta_epoch": "2025-12-17T09:22:05.188512",
        "meta_mean_motion": 15.51946269,
        "meta_eccentricity": 0.0011448,
        "meta_inclination": 34.9445,
        "meta_ra_of_asc_node": 349.6561,
        "meta_arg_of_pericenter": 250.5116,
        "meta_mean_anomaly": 109.437,
        "meta_ephemeris_type": 0,
        "meta_classification_type": "U",
        "meta_norad_cat_id": 41886,
        "meta_element_set_no": 999,
        "meta_rev_at_epoch": 50079,
        "meta_bstar": 0.00033696175,
        "meta_mean_motion_dot": 0.00020947,
        "meta_mean_motion_ddot": 0,
        "tle_line1": "1 41886U 16078C   25351.39033783  .00020947  00000+0  33696-3 0  9992",
        "tle_line2": "2 41886  34.9445 349.6561 0011448 250.5116 109.4370 15.51946269500793"
      },
      "geometry": {
        "type": "Point",
        "coordinates": [
          71.87156594511194,
          34.86369662366036
        ]
      }
    },
    {
      "type": "Feature",
      "properties": {
        "norad_id": 41887,
        "name": "CYGFM01",
        "group": "weather",
        "lat": 4.822257680249924,
        "lon": -171.76222120146411,
        "alt_km": 415.251983505349,
        "timestamp": "2025-12-17T23:38:06.507365+00:00",
        "meta_object_name": "CYGFM01",
        "meta_object_id": "2016-078D",
        "meta_epoch": "2025-12-17T12:03:57.828960",
        "meta_mean_motion": 15.48396099,
        "meta_eccentricity": 0.00102346,
        "meta_inclination": 34.9438,
        "meta_ra_of_asc_node": 18.3303,
        "meta_arg_of_pericenter": 218.2007,
        "meta_mean_anomaly": 141.799,
        "meta_ephemeris_type": 0,
        "meta_classification_type": "U",
        "meta_norad_cat_id": 41887,
        "meta_element_set_no": 999,
        "meta_rev_at_epoch": 50044,
        "meta_bstar": 0.00031016822,
        "meta_mean_motion_dot": 0.00016968,
        "meta_mean_motion_ddot": 0,
        "tle_line1": "1 41887U 16078D   25351.50275265  .00016968  00000+0  31017-3 0  9992",
        "tle_line2": "2 41887  34.9438  18.3303 0010234 218.2007 141.7990 15.48396099500447"
      },
      "geometry": {
        "type": "Point",
        "coordinates": [
          -171.76222120146411,
          4.822257680249924
        ]
      }
    },
    {
      "type": "Feature",
      "properties": {
        "norad_id": 41888,
        "name": "CYGFM08",
        "group": "weather",
        "lat": -30.662417662304748,
        "lon": -123.7902783679511,
        "alt_km": 411.5592212020474,
        "timestamp": "2025-12-17T23:38:06.507375+00:00",
        "meta_object_name": "CYGFM08",
        "meta_object_id": "2016-078E",
        "meta_epoch": "2025-12-17T10:13:20.355456",
        "meta_mean_motion": 15.49609627,
        "meta_eccentricity": 0.0011954,
        "meta_inclination": 34.9467,
        "meta_ra_of_asc_node": 1.7697,
        "meta_arg_of_pericenter": 240.3612,
        "meta_mean_anomaly": 119.592,
        "meta_ephemeris_type": 0,
        "meta_classification_type": "U",
        "meta_norad_cat_id": 41888,
        "meta_element_set_no": 999,
        "meta_rev_at_epoch": 50066,
        "meta_bstar": 0.00032472231,
        "meta_mean_motion_dot": 0.00018563,
        "meta_mean_motion_ddot": 0,
        "tle_line1": "1 41888U 16078E   25351.42593004  .00018563  00000+0  32472-3 0  9997",
        "tle_line2": "2 41888  34.9467   1.7697 0011954 240.3612 119.5920 15.49609627500665"
      },
      "geometry": {
        "type": "Point",
        "coordinates": [
          -123.7902783679511,
          -30.662417662304748
        ]
      }
    }
  ]
}